{
  "norad_id": 51631,
  "name": "ONEWEB-0434",
  "history": [
    {
      "epoch": "2026-03-28T22:27:23.730912",
      "apogee_km": 1222.6563884934176,
      "perigee_km": 1220.7518683066392,
      "latitude_deg": 78.83465928249385,
      "longitude_deg": 152.9263676800765,
      "semi_major_axis_km": 7599.841128400028,
      "eccentricity": 0.0001253,
      "inclination_deg": 87.881,
      "raan_deg": 52.2606,
      "arg_perigee_deg": 87.4577,
      "mean_anomaly_deg": 272.6694,
      "mean_motion_rev_day": 13.10376185
    }
  ]
}